QIANFAN-57              
1 62787U 25016C   25345.26981931  .00000206  00000+0  30073-3 0  9995
2 62787  88.9783 103.3505 0002236 122.8229 237.3138 13.50976069 47005
QIANFAN-58              
1 62788U 25016D   25345.31508697  .00000202  00000+0  29505-3 0  9990
2 62788  88.9753 103.1780 0013149 353.7657   6.3328 13.50977911 47058
QIANFAN-59              
1 62789U 25016E   25345.26568451  .00000200  00000+0  29078-3 0  9992
2 62789  88.9776 103.2564 0013636 357.7403   2.3684 13.50979518 47044
QIANFAN-60              
1 62790U 25016F   25345.29874773  .00000084  00000+0  11216-3 0  9999
2 62790  88.9758 103.2248 0015012 353.3777   6.7173 13.50982818 47038
QIANFAN-61              
1 62791U 25016G   25345.25746597  .00000199  00000+0  28973-3 0  9993
2 62791  88.9825 103.3909 0013992 353.2429   6.8531 13.50979871 47042
QIANFAN-62              
1 62792U 25016H   25345.26157624  .00000216  00000+0  31520-3 0  9994
2 62792  88.9771 103.2597 0015375 353.0365   7.0570 13.50976402 47031
QIANFAN-63              
1 62793U 25016J   25345.28629793  .00000213  00000+0  31070-3 0  9995
2 62793  88.9778 103.2086 0015568 358.4916   1.6186 13.50983062 47074
QIANFAN-64              
1 62794U 25016K   25345.25333253  .00000202  00000+0  29357-3 0  9999
2 62794  88.9765 103.1863 0013325 352.1132   7.9808 13.50978121 47062
